[{"OBJECT_NAME":"STARLINK-5932","OBJECT_ID":"2023-037AF","EPOCH":"2026-03-09T21:29:17.319840","MEAN_MOTION":14.98330775,"ECCENTRICITY":0.00027938,"INCLINATION":69.9983,"RA_OF_ASC_NODE":283.8207,"ARG_OF_PERICENTER":270.9348,"MEAN_ANOMALY":89.1491,"EPHEMERIS_TYPE":0,"CLASSIFICATION_TYPE":"U","NORAD_CAT_ID":55943,"ELEMENT_SET_NO":999,"REV_AT_EPOCH":16401,"BSTAR":-2.0500938e-5,"MEAN_MOTION_DOT":-3.38e-6,"MEAN_MOTION_DDOT":0},{"OBJECT_NAME":"STEP 2","OBJECT_ID":"1994-029A","EPOCH":"2026-03-09T19:35:47.124096","MEAN_MOTION":14.90069818,"ECCENTRICITY":0.0082455,"INCLINATION":81.9356,"RA_OF_ASC_NODE":275.268,"ARG_OF_PERICENTER":225.1907,"MEAN_ANOMALY":134.2589,"EPHEMERIS_TYPE":0,"CLASSIFICATION_TYPE":"U","NORAD_CAT_ID":23105,"ELEMENT_SET_NO":999,"REV_AT_EPOCH":70508,"BSTAR":0.00037800709,"MEAN_MOTION_DOT":3.917e-5,"MEAN_MOTION_DDOT":0}]
